EYESAT A (AO-27)        
1 22825U 93061C   26170.72690550  .00000069  00000+0  43200-4 0  9995
2 22825  98.6880 238.1396 0009544  93.2451 266.9824 14.30942876707362
ITAMSAT (IO-26)         
1 22826U 93061D   26170.70556032  .00000068  00000+0  42305-4 0  9994
2 22826  98.6829 238.0360 0010015  78.3690 281.8617 14.31369842707677
RADIO ROSTO (RS15)      
1 23439U 94085A   26170.95403191 -.00000030  00000+0  34180-3 0  9997
2 23439  64.8186 298.7412 0156025   3.3633 356.8304 11.27583495296210
JAS-2 (FO-29)           
1 24278U 96046B   26170.30734483 -.00000013  00000+0  19676-4 0  9993
2 24278  98.5238  18.8890 0350921  90.9460 273.1898 13.53274520473455
FORTE                   
1 24920U 97047A   26170.75669965  .00000110  00000+0  67422-4 0  9999
2 24920  69.9539   8.2172 0024633 274.2276  85.6031 14.27946016499058
TECHSAT 1B (GO-32)      
1 25397U 98043D   26170.59313746  .00000028  00000+0  32334-4 0  9992
2 25397  99.0068 163.4125 0001179 158.0468 202.0760 14.24428772451673
ISS (ZARYA)             
1 25544U 98067A   26170.83410215  .00008787  00000+0  16559-3 0  9998
2 25544  51.6328 286.9925 0004571 206.3215 153.7542 15.49322400572162
IMAGE                   
1 26113U 00017A   26162.34581823  .00000011  00000+0  22926-1 0  9995
2 26113  94.2241 315.2958 7436383 288.4674   8.8959  1.68665984161407
CLUSTER II-FM7 (SAMBA)  
1 26410U 00041A   26172.60119800  .00004700  00000+0  00000+0 0  9990
2 26410 149.9156  51.6296 9060156 268.8489 359.5243  0.44827446 20328
CLUSTER II-FM8 (TANGO)  
1 26464U 00045B   26168.43823291  .00013202  00000+0  00000+0 0  9992
2 26464 150.1515  52.0898 9060795 269.1034   2.6615  0.44409350 20310
ODIN                    
1 26702U 01007A   26170.63396130  .00167604  00000+0  10376-2 0  9994
2 26702  97.3812 211.7344 0006767 140.6294 219.5465 15.76561957389782
OMNI-M1                 
1 26857U 01026A   26167.20907279 -.00000001  00000+0  00000+0 0  9995
2 26857  44.8307 245.4893 0014194  53.4474 306.7446  3.92401638205538
PCSAT (NO-44)           
1 26931U 01043C   26170.88328392  .00000060  00000+0  53224-4 0  9993
2 26931  67.0502 237.2987 0006067 264.7337  95.3072 14.31956919290838
PROBA-1                 
1 26958U 01049B   26170.99086786  .00000569  00000+0  40771-4 0  9995
2 26958  97.9595 179.6215 0056459 112.7181 248.0028 15.07498547344046
SAUDISAT 1C (SO-50)     
1 27607U 02058C   26170.85258547  .00000740  00000+0  10489-3 0  9992
2 27607  64.5513 120.7383 0075161 261.9782  97.2791 14.83051819264857
CORIOLIS                
1 27640U 03001A   26170.59299289  .00000066  00000+0  51487-4 0  9992
2 27640  98.7125 177.4411 0013512 201.5448 158.5161 14.19945392214566
CUTE-1 (CO-55)          
1 27844U 03031E   26170.56610412  .00000202  00000+0  10624-3 0  9992
2 27844  98.6736 179.0951 0009689 171.1603 188.9749 14.24336935192018
CUBESAT XI-IV (CO-57)   
1 27848U 03031J   26170.97745452  .00000169  00000+0  93103-4 0  9990
2 27848  98.6765 179.2116 0009219 188.6492 171.4529 14.23622052191779
MOZHAETS 4 (RS22)       
1 27939U 03042A   26170.94721912  .00000598  00000+0  10039-3 0  9997
2 27939  98.3468 355.3836 0009922 259.8774 260.9585 14.73470830215951
